KUIPER-00061            
1 64521U 25134X   25317.55208738  .00010063  00000+0  13442-2 0  9994
2 64521  51.9025  21.6428 0005051 252.1265 107.9146 14.80018353 22936
KUIPER-00062            
1 64522U 25134Y   25318.21572998  .00007196  00000+0  86350-3 0  9993
2 64522  51.8987  24.6931 0006647 276.5136  83.5071 14.84898024 22968
KUIPER-00063            
1 64523U 25134Z   25318.21010907  .00006435  00000+0  86989-3 0  9994
2 64523  51.9046  28.6633 0003315 213.7478 146.3274 14.80052207 22908
KUIPER-00064            
1 64524U 25134AA  25318.20500712  .00008728  00000+0  11792-2 0  9998
2 64524  51.9046  26.0190 0006226 334.1184  25.9466 14.79682776 22942
KUIPER-00065            
1 64525U 25134AB  25318.33335648 -.00025454  00000+0 -35731-2 0  9993
2 64525  51.9026  30.3344 0010612 260.0424 235.6463 14.76822023  5517
KUIPER-00066            
1 64526U 25134AC  25318.30391916  .00020477  00000+0  96259-3 0  9992
2 64526  51.8924   8.5618 0002153 319.9032  40.1788 15.19556375 23190
KUIPER-00069            
1 64816U 25151A   25318.33335648 -.00041958  00000+0 -49346-2 0  9999
2 64816  51.8960  70.7075 0008030 251.9607 273.6855 14.84473821  3992
KUIPER-00070            
1 64817U 25151B   25317.77204070  .00005640  00000+0  76658-3 0  9994
2 64817  51.8999  98.1514 0010027 225.0251 134.9899 14.80002023 19254
